[{"OBJECT_NAME":"CARTOSAT-2A","OBJECT_ID":"2008-021A","EPOCH":"2026-03-10T00:17:01.509792","MEAN_MOTION":14.79100763,"ECCENTRICITY":0.00132764,"INCLINATION":97.7772,"RA_OF_ASC_NODE":121.0502,"ARG_OF_PERICENTER":75.3983,"MEAN_ANOMALY":284.87,"EPHEMERIS_TYPE":0,"CLASSIFICATION_TYPE":"U","NORAD_CAT_ID":32783,"ELEMENT_SET_NO":999,"REV_AT_EPOCH":96414,"BSTAR":9.5052975e-5,"MEAN_MOTION_DOT":6.55e-6,"MEAN_MOTION_DDOT":0},{"OBJECT_NAME":"KUIPER-00191","OBJECT_ID":"2025-301L","EPOCH":"2026-03-09T22:00:01.999584","MEAN_MOTION":14.8089991,"ECCENTRICITY":7.905e-5,"INCLINATION":51.9002,"RA_OF_ASC_NODE":72.1442,"ARG_OF_PERICENTER":129.7775,"MEAN_ANOMALY":22.6806,"EPHEMERIS_TYPE":0,"CLASSIFICATION_TYPE":"U","NORAD_CAT_ID":67143,"ELEMENT_SET_NO":999,"REV_AT_EPOCH":559,"BSTAR":0.0016415783,"MEAN_MOTION_DOT":0.00012607,"MEAN_MOTION_DDOT":0}]
